{
  "type": "FeatureCollection",
  "features": [
    {
      "type": "Feature",
      "properties": {
        "norad_id": 66555,
        "name": "ELECTRON KICK STAGE R/B",
        "group": "last-30-days",
        "lat": -4.060195656919537,
        "lon": 48.68132028643644,
        "alt_km": 465.4800086269788,
        "timestamp": "2025-12-13T08:49:14.456255+00:00",
        "meta_object_name": "ELECTRON KICK STAGE R/B",
        "meta_object_id": "2025-267B",
        "meta_epoch": "2025-12-12T21:54:01.987200",
        "meta_mean_motion": 15.32821781,
        "meta_eccentricity": 0.00065385,
        "meta_inclination": 42.0199,
        "meta_ra_of_asc_node": 55.8356,
        "meta_arg_of_pericenter": 54.3056,
        "meta_mean_anomaly": 305.8389,
        "meta_ephemeris_type": 0,
        "meta_classification_type": "U",
        "meta_norad_cat_id": 66555,
        "meta_element_set_no": 999,
        "meta_rev_at_epoch": 343,
        "meta_bstar": 0.0010491581,
        "meta_mean_motion_dot": 0.00033906,
        "meta_mean_motion_ddot": 0,
        "tle_line1": "1 66555U 25267B   25346.91252300  .00033906  00000+0  10492-2 0  9999",
        "tle_line2": "2 66555  42.0199  55.8356 0006538  54.3056 305.8389 15.32821781  3435"
      },
      "geometry": {
        "type": "Point",
        "coordinates": [
          48.68132028643644,
          -4.060195656919537
        ]
      }
    },
    {
      "type": "Feature",
      "properties": {
        "norad_id": 66557,
        "name": "STARLINK-35699",
        "group": "last-30-days",
        "lat": 4.855730023657481,
        "lon": 122.75878379504942,
        "alt_km": 414.2079036948671,
        "timestamp": "2025-12-13T08:49:14.456266+00:00",
        "meta_object_name": "STARLINK-35699",
        "meta_object_id": "2025-268A",
        "meta_epoch": "2025-12-12T20:00:01.999872",
        "meta_mean_motion": 15.50577695,
        "meta_eccentricity": 0.00014372,
        "meta_inclination": 42.9999,
        "meta_ra_of_asc_node": 120.6533,
        "meta_arg_of_pericenter": 275.5881,
        "meta_mean_anomaly": 346.2771,
        "meta_ephemeris_type": 0,
        "meta_classification_type": "U",
        "meta_norad_cat_id": 66557,
        "meta_element_set_no": 999,
        "meta_rev_at_epoch": 468,
        "meta_bstar": -0.00047797952,
        "meta_mean_motion_dot": -0.0002828,
        "meta_mean_motion_ddot": 0,
        "tle_line1": "1 66557U 25268A   25346.83335648 -.00028280  00000+0 -47798-3 0  9991",
        "tle_line2": "2 66557  42.9999 120.6533 0001437 275.5881 346.2771 15.50577695  4682"
      },
      "geometry": {
        "type": "Point",
        "coordinates": [
          122.75878379504942,
          4.855730023657481
        ]
      }
    },
    {
      "type": "Feature",
      "properties": {
        "norad_id": 66558,
        "name": "STARLINK-35695",
        "group": "last-30-days",
        "lat": 6.167816548484158,
        "lon": 124.18379437601861,
        "alt_km": 414.3904980013667,
        "timestamp": "2025-12-13T08:49:14.456278+00:00",
        "meta_object_name": "STARLINK-35695",
        "meta_object_id": "2025-268B",
        "meta_epoch": "2025-12-12T20:00:01.999872",
        "meta_mean_motion": 15.50606537,
        "meta_eccentricity": 0.00032071,
        "meta_inclination": 43,
        "meta_ra_of_asc_node": 120.6494,
        "meta_arg_of_pericenter": 268.2851,
        "meta_mean_anomaly": 355.4858,
        "meta_ephemeris_type": 0,
        "meta_classification_type": "U",
        "meta_norad_cat_id": 66558,
        "meta_element_set_no": 999,
        "meta_rev_at_epoch": 468,
        "meta_bstar": -0.0012559852,
        "meta_mean_motion_dot": -0.00073425,
        "meta_mean_motion_ddot": 0,
        "tle_line1": "1 66558U 25268B   25346.83335648 -.00073425  00000+0 -12560-2 0  9991",
        "tle_line2": "2 66558  43.0000 120.6494 0003207 268.2851 355.4858 15.50606537  4683"
      },
      "geometry": {
        "type": "Point",
        "coordinates": [
          124.18379437601861,
          6.167816548484158
        ]
      }
    },
    {
      "type": "Feature",
      "properties": {
        "norad_id": 66559,
        "name": "STARLINK-35419",
        "group": "last-30-days",
        "lat": 7.465429050476024,
        "lon": 125.60352220466005,
        "alt_km": 414.3394847109894,
        "timestamp": "2025-12-13T08:49:14.456288+00:00",
        "meta_object_name": "STARLINK-35419",
        "meta_object_id": "2025-268C",
        "meta_epoch": "2025-12-12T20:00:01.999872",
        "meta_mean_motion": 15.50584815,
        "meta_eccentricity": 0.00028289,
        "meta_inclination": 42.9999,
        "meta_ra_of_asc_node": 120.6451,
        "meta_arg_of_pericenter": 252.0719,
        "meta_mean_anomaly": 13.5102,
        "meta_ephemeris_type": 0,
        "meta_classification_type": "U",
        "meta_norad_cat_id": 66559,
        "meta_element_set_no": 999,
        "meta_rev_at_epoch": 468,
        "meta_bstar": 0.0013406684,
        "meta_mean_motion_dot": 0.00079131,
        "meta_mean_motion_ddot": 0,
        "tle_line1": "1 66559U 25268C   25346.83335648  .00079131  00000+0  13407-2 0  9991",
        "tle_line2": "2 66559  42.9999 120.6451 0002828 252.0719  13.5102 15.50584815  4682"
      },
      "geometry": {
        "type": "Point",
        "coordinates": [
          125.60352220466005,
          7.465429050476024
        ]
      }
    },
    {
      "type": "Feature",
      "properties": {
        "norad_id": 66560,
        "name": "STARLINK-35411",
        "group": "last-30-days",
        "lat": 8.767648701218015,
        "lon": 127.04157601451534,
        "alt_km": 414.0680268232245,
        "timestamp": "2025-12-13T08:49:14.456301+00:00",
        "meta_object_name": "STARLINK-35411",
        "meta_object_id": "2025-268D",
        "meta_epoch": "2025-12-12T20:00:01.999872",
        "meta_mean_motion": 15.50715423,
        "meta_eccentricity": 0.00018144,
        "meta_inclination": 43,
        "meta_ra_of_asc_node": 120.6399,
        "meta_arg_of_pericenter": 278.3958,
        "meta_mean_anomaly": 349.2418,
        "meta_ephemeris_type": 0,
        "meta_classification_type": "U",
        "meta_norad_cat_id": 66560,
        "meta_element_set_no": 999,
        "meta_rev_at_epoch": 468,
        "meta_bstar": -0.0047410545,
        "meta_mean_motion_dot": -0.00270418,
        "meta_mean_motion_ddot": 0,
        "tle_line1": "1 66560U 25268D   25346.83335648 -.00270418  00000+0 -47411-2 0  9998",
        "tle_line2": "2 66560  43.0000 120.6399 0001814 278.3958 349.2418 15.50715423  4680"
      },
      "geometry": {
        "type": "Point",
        "coordinates": [
          127.04157601451534,
          8.767648701218015
        ]
      }
    },
    {
      "type": "Feature",
      "properties": {
        "norad_id": 66561,
        "name": "STARLINK-35305",
        "group": "last-30-days",
        "lat": 11.309964855297574,
        "lon": 129.89898469124282,
        "alt_km": 413.5368505133765,
        "timestamp": "2025-12-13T08:49:14.456311+00:00",
        "meta_object_name": "STARLINK-35305",
        "meta_object_id": "2025-268E",
        "meta_epoch": "2025-12-12T20:00:01.999872",
        "meta_mean_motion": 15.50629043,
        "meta_eccentricity": 0.00013196,
        "meta_inclination": 43,
        "meta_ra_of_asc_node": 120.6305,
        "meta_arg_of_pericenter": 273.9325,
        "meta_mean_anomaly": 357.4956,
        "meta_ephemeris_type": 0,
        "meta_classification_type": "U",
        "meta_norad_cat_id": 66561,
        "meta_element_set_no": 999,
        "meta_rev_at_epoch": 463,
        "meta_bstar": -0.0017749376,
        "meta_mean_motion_dot": -0.00103289,
        "meta_mean_motion_ddot": 0,
        "tle_line1": "1 66561U 25268E   25346.83335648 -.00103289  00000+0 -17749-2 0  9991",
        "tle_line2": "2 66561  43.0000 120.6305 0001319 273.9325 357.4956 15.50629043  4632"
      },
      "geometry": {
        "type": "Point",
        "coordinates": [
          129.89898469124282,
          11.309964855297574
        ]
      }
    },
    {
      "type": "Feature",
      "properties": {
        "norad_id": 66562,
        "name": "STARLINK-35579",
        "group": "last-30-days",
        "lat": 10.028265311815964,
        "lon": 128.4491492346642,
        "alt_km": 413.6140032868052,
        "timestamp": "2025-12-13T08:49:14.456322+00:00",
        "meta_object_name": "STARLINK-35579",
        "meta_object_id": "2025-268F",
        "meta_epoch": "2025-12-12T20:00:01.999872",
        "meta_mean_motion": 15.5062804,
        "meta_eccentricity": 0.00014393,
        "meta_inclination": 43.0001,
        "meta_ra_of_asc_node": 120.6351,
        "meta_arg_of_pericenter": 279.4574,
        "meta_mean_anomaly": 350.052,
        "meta_ephemeris_type": 0,
        "meta_classification_type": "U",
        "meta_norad_cat_id": 66562,
        "meta_element_set_no": 999,
        "meta_rev_at_epoch": 468,
        "meta_bstar": -0.0017704834,
        "meta_mean_motion_dot": -0.00103031,
        "meta_mean_motion_ddot": 0,
        "tle_line1": "1 66562U 25268F   25346.83335648 -.00103031  00000+0 -17705-2 0  9999",
        "tle_line2": "2 66562  43.0001 120.6351 0001439 279.4574 350.0520 15.50628040  4682"
      },
      "geometry": {
        "type": "Point",
        "coordinates": [
          128.4491492346642,
          10.028265311815964
        ]
      }
    }
  ]
}